{"type": "FeatureCollection", "features": [ {"type": "Feature", "properties": {"norad_id": 31383, "name": "FENGYUN 1C DEB", "group": "fengyun-1c-debris", "lat": -80.90920527280892, "lon": 134.1313079638541, "alt_km": 854.7142098379481, "timestamp": "2025-12-04T17:48:40.447937+00:00", "meta": {"OBJECT_NAME": "FENGYUN 1C DEB", "OBJECT_ID": "1999-025BSP", "EPOCH": "2025-11-30T15:52:15.780864", "MEAN_MOTION": 14.05658237, "ECCENTRICITY": 0.01079896, "INCLINATION": 99.0689, "RA_OF_ASC_NODE": 36.5888, "ARG_OF_PERICENTER": 351.3472, "MEAN_ANOMALY": 159.9983, "EPHEMERIS_TYPE": 0, "CLASSIFICATION_TYPE": "U", "NORAD_CAT_ID": 31383, "ELEMENT_SET_NO": 999, "REV_AT_EPOCH": 95199, "BSTAR": 0.0006307032, "MEAN_MOTION_DOT": 1.037e-05, "MEAN_MOTION_DDOT": 0}, "tle": {"line1": "1 31383U 99025BSP 25334.66129376  .00001037  00000+0  63070-3 0  9999", "line2": "2 31383  99.0689  36.5888 0107989 351.3472 159.9983 14.05658237951996"}}, "geometry": {"type": "Point", "coordinates": [134.1313079638541, -80.90920527280892]}}, {"type": "Feature", "properties": {"norad_id": 31384, "name": "FENGYUN 1C DEB", "group": "fengyun-1c-debris", "lat": 2.8182170218934144, "lon": 125.97502043772377, "alt_km": 1061.3895726957717, "timestamp": "2025-12-04T17:48:40.447949+00:00", "meta": {"OBJECT_NAME": "FENGYUN 1C DEB", "OBJECT_ID": "1999-025BSQ", "EPOCH": "2025-11-30T21:25:39.153792", "MEAN_MOTION": 13.85935935, "ECCENTRICITY": 0.04406256, "INCLINATION": 98.4563, "RA_OF_ASC_NODE": 302.0658, "ARG_OF_PERICENTER": 74.1899, "MEAN_ANOMALY": 342.7882, "EPHEMERIS_TYPE": 0, "CLASSIFICATION_TYPE": "U", "NORAD_CAT_ID": 31384, "ELEMENT_SET_NO": 999, "REV_AT_EPOCH": 92860, "BSTAR": 0.0021210825, "MEAN_MOTION_DOT": 5.211e-05, "MEAN_MOTION_DDOT": 0}, "tle": {"line1": "1 31384U 99025BSQ 25334.89281428  .00005211  00000+0  21211-2 0  9990", "line2": "2 31384  98.4563 302.0658 0440625  74.1899 342.7882 13.85935935928609"}}, "geometry": {"type": "Point", "coordinates": [125.97502043772377, 2.8182170218934144]}}, {"type": "Feature", "properties": {"norad_id": 31385, "name": "FENGYUN 1C DEB", "group": "fengyun-1c-debris", "lat": 76.83119995804563, "lon": -69.15582597057603, "alt_km": 647.9226304153026, "timestamp": "2025-12-04T17:48:40.447960+00:00", "meta": {"OBJECT_NAME": "FENGYUN 1C DEB", "OBJECT_ID": "1999-025BSR", "EPOCH": "2025-12-01T00:22:37.155648", "MEAN_MOTION": 14.43974622, "ECCENTRICITY": 0.01349077, "INCLINATION": 98.9546, "RA_OF_ASC_NODE": 64.5546, "ARG_OF_PERICENTER": 90.2451, "MEAN_ANOMALY": 88.8217, "EPHEMERIS_TYPE": 0, "CLASSIFICATION_TYPE": "U", "NORAD_CAT_ID": 31385, "ELEMENT_SET_NO": 999, "REV_AT_EPOCH": 98445, "BSTAR": 0.00018371815, "MEAN_MOTION_DOT": 6.48e-06, "MEAN_MOTION_DDOT": 0}, "tle": {"line1": "1 31385U 99025BSR 25335.01570782  .00000648  00000+0  18372-3 0  9994", "line2": "2 31385  98.9546  64.5546 0134907  90.2451  88.8217 14.43974622984454"}}, "geometry": {"type": "Point", "coordinates": [-69.15582597057603, 76.83119995804563]}}, {"type": "Feature", "properties": {"norad_id": 31386, "name": "FENGYUN 1C DEB", "group": "fengyun-1c-debris", "lat": 22.64805713980863, "lon": -9.12915752964123, "alt_km": 906.1427231956977, "timestamp": "2025-12-04T17:48:40.447972+00:00", "meta": {"OBJECT_NAME": "FENGYUN 1C DEB", "OBJECT_ID": "1999-025BSS", "EPOCH": "2025-11-30T23:36:27.682272", "MEAN_MOTION": 13.85933209, "ECCENTRICITY": 0.01976819, "INCLINATION": 98.4408, "RA_OF_ASC_NODE": 351.0324, "ARG_OF_PERICENTER": 316.7324, "MEAN_ANOMALY": 41.8452, "EPHEMERIS_TYPE": 0, "CLASSIFICATION_TYPE": "U", "NORAD_CAT_ID": 31386, "ELEMENT_SET_NO": 999, "REV_AT_EPOCH": 93699, "BSTAR": 0.0021212341, "MEAN_MOTION_DOT": 2.802e-05, "MEAN_MOTION_DDOT": 0}, "tle": {"line1": "1 31386U 99025BSS 25334.98365373  .00002802  00000+0  21212-2 0  9998", "line2": "2 31386  98.4408 351.0324 0197681 316.7324  41.8452 13.85933209936995"}}, "geometry": {"type": "Point", "coordinates": [-9.12915752964123, 22.64805713980863]}}, {"type": "Feature", "properties": {"norad_id": 31387, "name": "FENGYUN 1C DEB", "group": "fengyun-1c-debris", "lat": -50.075495895844625, "lon": -131.87898817771557, "alt_km": 925.183763452359, "timestamp": "2025-12-04T17:48:40.447983+00:00", "meta": {"OBJECT_NAME": "FENGYUN 1C DEB", "OBJECT_ID": "1999-025BST", "EPOCH": "2025-12-03T09:46:58.419840", "MEAN_MOTION": 14.13553434, "ECCENTRICITY": 0.02413381, "INCLINATION": 99.1685, "RA_OF_ASC_NODE": 215.625, "ARG_OF_PERICENTER": 197.5416, "MEAN_ANOMALY": 161.7313, "EPHEMERIS_TYPE": 0, "CLASSIFICATION_TYPE": "U", "NORAD_CAT_ID": 31387, "ELEMENT_SET_NO": 999, "REV_AT_EPOCH": 96165, "BSTAR": 0.00033502767, "MEAN_MOTION_DOT": 7.83e-06, "MEAN_MOTION_DDOT": 0}, "tle": {"line1": "1 31387U 99025BST 25337.40762060  .00000783  00000+0  33503-3 0  9996", "line2": "2 31387  99.1685 215.6250 0241338 197.5416 161.7313 14.13553434961659"}}, "geometry": {"type": "Point", "coordinates": [-131.87898817771557, -50.075495895844625]}}, {"type": "Feature", "properties": {"norad_id": 31388, "name": "FENGYUN 1C DEB", "group": "fengyun-1c-debris", "lat": -15.631178932421648, "lon": -30.60446800906617, "alt_km": 889.7492413736154, "timestamp": "2025-12-04T17:48:40.447993+00:00", "meta": {"OBJECT_NAME": "FENGYUN 1C DEB", "OBJECT_ID": "1999-025BSU", "EPOCH": "2025-12-03T06:07:53.129856", "MEAN_MOTION": 14.07419415, "ECCENTRICITY": 0.0046166, "INCLINATION": 98.8042, "RA_OF_ASC_NODE": 325.4619, "ARG_OF_PERICENTER": 228.0098, "MEAN_ANOMALY": 147.5361, "EPHEMERIS_TYPE": 0, "CLASSIFICATION_TYPE": "U", "NORAD_CAT_ID": 31388, "ELEMENT_SET_NO": 999, "REV_AT_EPOCH": 96308, "BSTAR": 0.00030121, "MEAN_MOTION_DOT": 4.68e-06, "MEAN_MOTION_DDOT": 0}, "tle": {"line1": "1 31388U 99025BSU 25337.25547604  .00000468  00000+0  30121-3 0  9998", "line2": "2 31388  98.8042 325.4619 0046166 228.0098 147.5361 14.07419415963087"}}, "geometry": {"type": "Point", "coordinates": [-30.60446800906617, -15.631178932421648]}}, {"type": "Feature", "properties": {"norad_id": 31389, "name": "FENGYUN 1C DEB", "group": "fengyun-1c-debris", "lat": 1.7219804977815445, "lon": -36.321996970098525, "alt_km": 676.9745063293831, "timestamp": "2025-12-04T17:48:40.448003+00:00", "meta": {"OBJECT_NAME": "FENGYUN 1C DEB", "OBJECT_ID": "1999-025BSV", "EPOCH": "2025-12-03T09:53:27.656160", "MEAN_MOTION": 14.60249637, "ECCENTRICITY": 0.00305164, "INCLINATION": 99.0426, "RA_OF_ASC_NODE": 141.9537, "ARG_OF_PERICENTER": 216.4518, "MEAN_ANOMALY": 173.9957, "EPHEMERIS_TYPE": 0, "CLASSIFICATION_TYPE": "U", "NORAD_CAT_ID": 31389, "ELEMENT_SET_NO": 999, "REV_AT_EPOCH": 96361, "BSTAR": 0.006818357, "MEAN_MOTION_DOT": 0.00033216, "MEAN_MOTION_DDOT": 0}, "tle": {"line1": "1 31389U 99025BSV 25337.41212565  .00033216  00000+0  68184-2 0  9998", "line2": "2 31389  99.0426 141.9537 0030516 216.4518 173.9957 14.60249637963616"}}, "geometry": {"type": "Point", "coordinates": [-36.321996970098525, 1.7219804977815445]}}, {"type": "Feature", "properties": {"norad_id": 31410, "name": "FENGYUN 1C DEB", "group": "fengyun-1c-debris", "lat": 14.198173036485656, "lon": 137.7178084859372, "alt_km": 708.3888245673479, "timestamp": "2025-12-04T17:48:40.448013+00:00", "meta": {"OBJECT_NAME": "FENGYUN 1C DEB", "OBJECT_ID": "1999-025BSW", "EPOCH": "2025-12-01T10:16:43.576896", "MEAN_MOTION": 14.44660711, "ECCENTRICITY": 0.01107684, "INCLINATION": 98.8365, "RA_OF_ASC_NODE": 136.529, "ARG_OF_PERICENTER": 320.6498, "MEAN_ANOMALY": 107.8693, "EPHEMERIS_TYPE": 0, "CLASSIFICATION_TYPE": "U", "NORAD_CAT_ID": 31410, "ELEMENT_SET_NO": 999, "REV_AT_EPOCH": 97588, "BSTAR": 0.0008135917, "MEAN_MOTION_DOT": 2.987e-05, "MEAN_MOTION_DDOT": 0}, "tle": {"line1": "1 31410U 99025BSW 25335.42828214  .00002987  00000+0  81359-3 0  9997", "line2": "2 31410  98.8365 136.5290 0110768 320.6498 107.8693 14.44660711975886"}}, "geometry": {"type": "Point", "coordinates": [137.7178084859372, 14.198173036485656]}}, {"type": "Feature", "properties": {"norad_id": 31411, "name": "FENGYUN 1C DEB", "group": "fengyun-1c-debris", "lat": -69.06347626151911, "lon": -163.42438362875632, "alt_km": 741.7024784035129, "timestamp": "2025-12-04T17:48:40.448023+00:00", "meta": {"OBJECT_NAME": "FENGYUN 1C DEB", "OBJECT_ID": "1999-025BSX", "EPOCH": "2025-12-03T22:58:04.532160", "MEAN_MOTION": 14.27954054, "ECCENTRICITY": 0.01005575, "INCLINATION": 98.6701, "RA_OF_ASC_NODE": 39.3006, "ARG_OF_PERICENTER": 280.7403, "MEAN_ANOMALY": 256.8017, "EPHEMERIS_TYPE": 0, "CLASSIFICATION_TYPE": "U", "NORAD_CAT_ID": 31411, "ELEMENT_SET_NO": 999, "REV_AT_EPOCH": 94354, "BSTAR": 0.00083851976, "MEAN_MOTION_DOT": 2.149e-05, "MEAN_MOTION_DDOT": 0}, "tle": {"line1": "1 31411U 99025BSX 25337.95699690  .00002149  00000+0  83852-3 0  9992", "line2": "2 31411  98.6701  39.3006 0100557 280.7403 256.8017 14.27954054943541"}}, "geometry": {"type": "Point", "coordinates": [-163.42438362875632, -69.06347626151911]}}, {"type": "Feature", "properties": {"norad_id": 31412, "name": "FENGYUN 1C DEB", "group": "fengyun-1c-debris", "lat": 34.585271472143354, "lon": -82.91312016037263, "alt_km": 809.2842250729063, "timestamp": "2025-12-04T17:48:40.448037+00:00", "meta": {"OBJECT_NAME": "FENGYUN 1C DEB", "OBJECT_ID": "1999-025BSY", "EPOCH": "2025-11-28T06:38:13.979616", "MEAN_MOTION": 14.09684254, "ECCENTRICITY": 0.00844356, "INCLINATION": 98.5498, "RA_OF_ASC_NODE": 276.8981, "ARG_OF_PERICENTER": 16.021, "MEAN_ANOMALY": 344.3602, "EPHEMERIS_TYPE": 0, "CLASSIFICATION_TYPE": "U", "NORAD_CAT_ID": 31412, "ELEMENT_SET_NO": 999, "REV_AT_EPOCH": 60788, "BSTAR": 0.0021882226, "MEAN_MOTION_DOT": 3.927e-05, "MEAN_MOTION_DDOT": 0}, "tle": {"line1": "1 31412U 99025BSY 25332.27655069  .00003927  00000+0  21882-2 0  9994", "line2": "2 31412  98.5498 276.8981 0084435  16.0210 344.3602 14.09684254607885"}}, "geometry": {"type": "Point", "coordinates": [-82.91312016037263, 34.585271472143354]}}]}